[{"OBJECT_NAME":"ICEYE-X4","OBJECT_ID":"2019-038D","EPOCH":"2026-03-09T23:53:58.416000","MEAN_MOTION":15.26985132,"ECCENTRICITY":0.00122769,"INCLINATION":97.8888,"RA_OF_ASC_NODE":96.1923,"ARG_OF_PERICENTER":293.9914,"MEAN_ANOMALY":66.0038,"EPHEMERIS_TYPE":0,"CLASSIFICATION_TYPE":"U","NORAD_CAT_ID":44390,"ELEMENT_SET_NO":999,"REV_AT_EPOCH":36665,"BSTAR":0.00049915294,"MEAN_MOTION_DOT":0.00013179,"MEAN_MOTION_DDOT":0},{"OBJECT_NAME":"STARLINK-33919","OBJECT_ID":"2025-087C","EPOCH":"2026-03-09T16:24:46.831968","MEAN_MOTION":15.30199068,"ECCENTRICITY":9.515e-5,"INCLINATION":53.1603,"RA_OF_ASC_NODE":219.943,"ARG_OF_PERICENTER":87.8925,"MEAN_ANOMALY":272.2185,"EPHEMERIS_TYPE":0,"CLASSIFICATION_TYPE":"U","NORAD_CAT_ID":63699,"ELEMENT_SET_NO":999,"REV_AT_EPOCH":4919,"BSTAR":0.00057663715,"MEAN_MOTION_DOT":0.00016757,"MEAN_MOTION_DDOT":0}]
